DELTA 2 R/B(1)          
1 20453U 90008B   26139.83256110  .00048936  00000+0  42476-3 0  9993
2 20453  35.6024  64.7251 0071170 208.9829 150.6947 15.64633832937254
COSMOS 2058             
1 20465U 90010A   26139.80917030  .00001887  00000+0  10858-3 0  9994
2 20465  82.4682 337.3435 0010906  89.1986 271.0494 15.11830803952984
SL-14 R/B               
1 20466U 90010B   26139.57184720  .00000226  00000+0  24371-4 0  9993
2 20466  82.5036 200.8164 0021254  68.2967 292.0508 14.83627037938992
SL-14 R/B               
1 20511U 90018B   26139.45519130  .00000195  00000+0  21474-4 0  9992
2 20511  82.5203 156.9644 0015311 214.4964 145.5258 14.82196282933061
HST                     
1 20580U 90037B   26139.71482186  .00004676  00000+0  14686-3 0  9992
2 20580  28.4749 275.1207 0001663 171.6332 188.4291 15.30423600784202
SL-16 R/B               
1 20625U 90046B   26139.38881578 -.00000246  00000+0 -10222-3 0  9996
2 20625  70.9973 149.4310 0015090 206.2154 153.8206 14.15022427858395
COSMOS 2084             
1 20663U 90055A   26139.57723412  .00000998  00000+0  81975-4 0  9997
2 20663  62.7883  93.7297 0006715 232.2137 127.8356 15.05981213946993
SL-6 R/B(2)             
1 20666U 90055D   26139.39227834  .00000960  00000+0  83197-4 0  9994
2 20666  62.7833  13.3545 0036075   0.9606 359.1556 15.03890261948824
SL-8 R/B                
1 20775U 90078B   26139.55401409  .00013744  00000+0  39076-3 0  9990
2 20775  82.9025 187.4909 0354807 134.7682 228.3000 14.91330920819853
SL-8 R/B                
1 21088U 91006B   26139.88136352 -.00000032  00000+0 -47303-4 0  9999
2 21088  82.9399 117.0918 0022007 192.1703 233.1517 13.77504626773877
OKEAN-3                 
1 21397U 91039A   26139.75349657  .00001892  00000+0  13046-3 0  9997
2 21397  82.5152 267.9501 0015835  88.6070 271.6970 15.05171187875725
COSMOS 2151             
1 21422U 91042A   26139.78276392  .00000943  00000+0  72922-4 0  9993
2 21422  82.4979  15.0919 0012343 171.8136 188.3292 15.00353240873854
SL-14 R/B               
1 21423U 91042B   26139.38822073  .00000210  00000+0  23581-4 0  9997
2 21423  82.4918 153.9036 0017327  14.2684 345.9016 14.81882007863541
ERS-1                   
1 21574U 91050A   26139.80561157  .00000140  00000+0  59676-4 0  9999
2 21574  98.7813 159.8088 0031682 353.5786   6.4990 14.39497570825960
ARIANE 40 R/B           
1 21610U 91050F   26139.41031612  .00000154  00000+0  58555-4 0  9995
2 21610  98.1896 188.9452 0002579 193.7491 166.3629 14.42937813829191
INTERCOSMOS 25          
1 21819U 91086A   26139.80339144  .00000621  00000+0  12166-3 0  9995
2 21819  82.6032 266.9860 1485216 323.6427  27.2079 12.12160175505301
SL-8 R/B                
1 21876U 92008B   26139.64221110  .00000056  00000+0  42173-4 0  9992
2 21876  82.9287 215.0089 0033274 297.4279 229.3936 13.75972893719179
SL-8 R/B                
1 21938U 92020B   26139.63550522 -.00000005  00000+0 -21210-4 0  9991
2 21938  82.9284 101.0638 0030459  99.1006  73.4753 13.75546749710887
USA 81                  
1 21949U 92023A   26139.84326823  .00000131  00000+0  41188-4 0  9998
2 21949  85.0062  90.3644 0002299 107.7806 252.3637 14.32389157104977
COSMOS 2219             
1 22219U 92076A   26139.54186034 -.00000206  00000+0 -83656-4 0  9993
2 22219  71.0613 229.9535 0015587  91.6042 268.6866 14.14102047728394
SL-16 R/B               
1 22220U 92076B   26139.71334796 -.00000158  00000+0 -54659-4 0  9991
2 22220  71.0011  38.7631 0013491 337.3746  51.7048 14.16867869731898
COSMOS 2221             
1 22236U 92080A   26139.58782328  .00000844  00000+0  71979-4 0  9990
2 22236  82.5052 211.1610 0012965 318.7723  41.2519 14.96453546791393
SL-16 R/B               
1 22285U 92093B   26139.62130985 -.00000069  00000+0 -10918-4 0  9996
2 22285  71.0213 215.3587 0005487 221.0605 139.0105 14.15457852723199
COSMOS 2228             
1 22286U 92094A   26139.75675591  .00001051  00000+0  87622-4 0  9995
2 22286  82.5177 169.2733 0019378  65.6762 294.6482 14.97477608786697
SL-16 R/B               
1 22566U 93016B   26139.88104280 -.00000018  00000+0  15178-4 0  9997
2 22566  71.0086  65.6584 0011737 224.3454 135.6730 14.15312171712249
COSMOS 2242             
1 22626U 93024A   26139.23547020  .00000947  00000+0  80165-4 0  9993
2 22626  82.5199 199.2380 0017713  70.8524 289.4614 14.96812041790940
SL-16 R/B               
1 22803U 93059B   26139.62248941  .00000228  00000+0  13650-3 0  9997
2 22803  70.9904 221.5406 0014991 104.0760 256.2031 14.17242224689582
ARIANE 40 R/B           
1 22830U 93061H   26139.43605287  .00000114  00000+0  57458-4 0  9998
2 22830  98.4830 206.8887 0011927  77.2094 283.0423 14.32894072704235
COSMOS 2278             
1 23087U 94023A   26139.39188726 -.00000201  00000+0 -80158-4 0  9993
2 23087  71.0544  27.1742 0010993 277.9245  82.0630 14.14384826654807
SL-16 R/B               
1 23088U 94023B   26139.68930678 -.00000175  00000+0 -65686-4 0  9996
2 23088  71.0003 281.7788 0004319 222.3772 137.7018 14.15022711656139
SL-16 R/B               
1 23343U 94074B   26139.83047550  .00000234  00000+0  37887-4 0  9997
2 23343  97.7010 167.7311 0006475   3.3452 170.0268 14.79475154697762
SL-16 R/B               
1 23405U 94077B   26139.43124683  .00000285  00000+0  16994-3 0  9999
2 23405  70.9824 203.6597 0001299   3.1933 356.9198 14.15571322626240
ARIANE 40+ R/B          
1 23561U 95021B   26139.65116124  .00000152  00000+0  62251-4 0  9998
2 23561  98.4420 210.1369 0005490 292.9610 229.1421 14.39815646629459
SL-16 R/B               
1 23705U 95058B   26139.86565742  .00000187  00000+0  12006-3 0  9995
2 23705  71.0232  30.8213 0012361   1.1764 358.9386 14.15507616577921
SL-16 R/B               
1 24298U 96051B   26139.63259301  .00000122  00000+0  92634-4 0  9998
2 24298  70.7634  25.0835 0013292  22.9120 337.2590 14.12435521531668
ORBVIEW 2 (SEASTAR)     
1 24883U 97037A   26139.72192975  .00000114  00000+0  55785-4 0  9993
2 24883  98.8666 305.9560 0001961 180.4730 179.6453 14.35536943518662
SL-16 R/B               
1 25400U 98043G   26139.87689875  .00000017  00000+0  26249-4 0  9998
2 25400  98.8351  93.7956 0010084 162.0838 198.0698 14.26063341449139
SL-16 R/B               
1 25407U 98045B   26139.41783556 -.00000244  00000+0 -99220-4 0  9991
2 25407  71.0126  32.8331 0009757 275.7548  84.2463 14.16200783437118
ISS (ZARYA)             
1 25544U 98067A   26139.81053376  .00005239  00000+0  10220-3 0  9990
2 25544  51.6327  80.5761 0007549  76.5627 283.6202 15.49275597567354
CZ-4B R/B               
1 25732U 99025C   26139.34477131  .00000013  00000+0  26806-4 0  9994
2 25732  98.6506 181.9062 0037895 140.3603 230.4860 14.18277901398183
OKEAN-O                 
1 25860U 99039A   26139.41977610  .00000343  00000+0  51700-4 0  9993
2 25860  97.9333 198.5456 0001987  96.5102 263.6336 14.80428193444857
SL-16 R/B               
1 25861U 99039B   26139.40088622  .00000279  00000+0  42129-4 0  9992
2 25861  97.9856 198.3437 0015471  32.8950 327.3222 14.81812688447337
DELTA 2 R/B             
1 25876U 99041E   26139.86373000  .00000136  00000+0  60566-4 0  9995
2 25876  51.7648  16.9383 0501719 198.3365 159.8890 14.11960974373082
HELIOS 1B               
1 25977U 99064A   26139.66595911  .00000825  00000+0  96500-4 0  9999
2 25977  98.1635  43.9789 0001610 126.8811 233.2553 14.87920625695815
TERRA                   
1 25994U 99068A   26139.81633802  .00000239  00000+0  57697-4 0  9994
2 25994  97.9475 190.4847 0001584 358.4309 135.2340 14.61077737405465
SL-16 R/B               
1 26070U 00006B   26139.87553846 -.00000019  00000+0  14384-4 0  9992
2 26070  71.0017 308.1555 0014516  71.0829 289.1866 14.15830694358630
TITAN 4B R/B            
1 26474U 00047B   26139.77834561  .00001571  00000+0  10271-3 0  9993
2 26474  67.9871 200.5268 0044484 316.1882  43.5741 15.10027783403644
ENVISAT                 
1 27386U 02009A   26139.87310028  .00000046  00000+0  28869-4 0  9993
2 27386  98.3821  91.8259 0001229  92.0451 288.6453 14.39057259269411
IDEFIX & ARIANE 42P R/B 
1 27422U 02021B   26139.53332904  .00000130  00000+0  65955-4 0  9999
2 27422  98.5937  77.3287 0011551 345.2020  14.8823 14.31066703254157
AQUA                    
1 27424U 02022A   26139.85360713  .00000452  00000+0  99820-4 0  9991
2 27424  98.4262 108.5745 0002022  70.6812 319.3725 14.62108737279133
CZ-4B R/B               
1 27432U 02024C   26139.89858985  .00000010  00000+0  28055-4 0  9991
2 27432  98.8719 192.8993 0050212 179.4865 354.0170 14.14559283239302
MIDORI II (ADEOS-II)    
1 27597U 02056A   26139.64724411  .00000152  00000+0  77570-4 0  9990
2 27597  98.7865  98.6679 0001847 115.4918 244.6454 14.29331591220437
H-2A R/B                
1 27601U 02056E   26139.88843712  .00000150  00000+0  67350-4 0  9991
2 27601  98.3300  97.5970 0069211 310.2909 109.1616 14.33807321224319
CZ-4B R/B               
1 28059U 03049C   26139.69415553  .00000196  00000+0  56587-4 0  9999
2 28059  98.6899 137.4081 0048455  16.4991 343.7769 14.55077357196925
CZ-2C R/B               
1 28222U 04012C   26139.46481478  .00056810  00000+0  40370-3 0  9992
2 28222  97.7099 211.9122 0010382  53.7229 306.4992 15.73661216215378
SL-16 R/B               
1 28353U 04021B   26139.87653293  .00000333  00000+0  19791-3 0  9990
2 28353  71.0002  83.1007 0006998 284.3762  75.6584 14.14607403132906
CZ-4B R/B               
1 28415U 04035C   26139.82100141  .00005934  00000+0  20272-3 0  9996
2 28415  97.3386 173.2216 0033013  77.2705 283.2223 15.30146681190780
CZ-2C R/B               
1 28480U 04046B   26139.51388083  .00000078  00000+0  44705-4 0  9991
2 28480  98.1962  50.0831 0138321 305.7933  53.0456 14.27018360118605
ARIANE 5 R/B            
1 28499U 04049H   26139.70371492  .00000511  00000+0  62654-4 0  9996
2 28499  98.2706 310.8609 0085137 120.5305 240.4347 14.85397738156330
